COMMENT,ORIGINATOR,NORAD_CAT_ID,OBJECT_NAME,OBJECT_TYPE,CLASSIFICATION_TYPE,INTLDES,EPOCH,EPOCH_MICROSECONDS,MEAN_MOTION,ECCENTRICITY,INCLINATION,RA_OF_ASC_NODE,ARG_OF_PERICENTER,MEAN_ANOMALY,EPHEMERIS_TYPE,ELEMENT_SET_NO,REV_AT_EPOCH,BSTAR,MEAN_MOTION_DOT,MEAN_MOTION_DDOT,FILE,TLE_LINE0,TLE_LINE1,TLE_LINE2,OBJECT_ID,OBJECT_NUMBER,SEMIMAJOR_AXIS,PERIOD,APOGEE,PERIGEE,DECAYED
"GENERATED VIA SPACETRACK.ORG API","18 SPCS","48886","SPACEBEE-102","PAYLOAD","U","21059H","2022-03-18 07:19:31","402848","15.13769174","0.0009433","97.5403","207.5788","65.4972","294.7242","0","999","4013","0.00039614","0.00007088","0","3364342","0 SPACEBEE-102","1 48886U 21059H   22077.30522457  .00007088  00000-0  39614-3 0  9996","2 48886  97.5403 207.5788 0009433  65.4972 294.7242 15.13769174 40135","2021-059H","48886","6902.855","95.127","531.231","518.208","0"
"GENERATED VIA SPACETRACK.ORG API","18 SPCS","48886","SPACEBEE-102","PAYLOAD","U","21059H","2022-03-18 20:01:01","68960","15.13776644","0.0009433","97.5406","208.1023","64.0148","296.2054","0","999","4021","0.00038814","0.00006945","0","3364607","0 SPACEBEE-102","1 48886U 21059H   22077.83404015  .00006945  00000-0  38814-3 0  9995","2 48886  97.5406 208.1023 0009433  64.0148 296.2054 15.13776644 40214","2021-059H","48886","6902.832","95.126","531.209","518.186","0"
"GENERATED VIA SPACETRACK.ORG API","18 SPCS","48886","SPACEBEE-102","PAYLOAD","U","21059H","2022-03-18 21:36:12","267072","15.13777372","0.0009434","97.5406","208.1677","63.8605","296.3595","0","999","4022","0.00038505","0.00006889","0","3364757","0 SPACEBEE-102","1 48886U 21059H   22077.90014198  .00006889  00000-0  38505-3 0  9996","2 48886  97.5406 208.1677 0009434  63.8605 296.3595 15.13777372 40226","2021-059H","48886","6902.830","95.126","531.207","518.183","0"
"GENERATED VIA SPACETRACK.ORG API","18 SPCS","48886","SPACEBEE-102","PAYLOAD","U","21059H","2022-03-19 07:07:19","364160","15.1378165","0.0009445","97.5408","208.5603","62.6831","297.5361","0","999","4028","0.00034587","0.00006182","0","3365744","0 SPACEBEE-102","1 48886U 21059H   22078.29675190  .00006182  00000-0  34587-3 0  9996","2 48886  97.5408 208.5603 0009445  62.6831 297.5361 15.13781650 40285","2021-059H","48886","6902.817","95.126","531.202","518.162","0"
"GENERATED VIA SPACETRACK.ORG API","18 SPCS","48886","SPACEBEE-102","PAYLOAD","U","21059H","2022-03-19 21:23:59","817120","15.13788953","0.0009436","97.541","209.149","61.0725","299.1452","0","999","4037","0.00034361","0.00006142","0","3366025","0 SPACEBEE-102","1 48886U 21059H   22078.89166455  .00006142  00000-0  34361-3 0  9997","2 48886  97.5410 209.1490 0009436  61.0725 299.1452 15.13788953 40376","2021-059H","48886","6902.795","95.126","531.173","518.146","0"
"GENERATED VIA SPACETRACK.ORG API","18 SPCS","48886","SPACEBEE-102","PAYLOAD","U","21059H","2022-03-19 21:23:59","817120","15.13788953","0.0009436","97.541","209.149","61.0725","299.1452","0","999","4037","0.00034361","0.00006142","0","3366144","0 SPACEBEE-102","1 48886U 21059H   22078.89166455  .00006142  00000-0  34361-3 0  9997","2 48886  97.5410 209.1490 0009436  61.0725 299.1452 15.13788953 40376","2021-059H","48886","6902.795","95.126","531.173","518.146","0"
"GENERATED VIA SPACETRACK.ORG API","18 SPCS","48886","SPACEBEE-102","PAYLOAD","U","21059H","2022-03-20 08:30:17","723520","15.13795961","0.0009454","97.5412","209.6072","59.4764","300.7399","0","999","4044","0.00036342","0.00006502","0","3367010","0 SPACEBEE-102","1 48886U 21059H   22079.35437180  .00006502  00000-0  36342-3 0  9996","2 48886  97.5412 209.6072 0009454  59.4764 300.7399 15.13795961 40447","2021-059H","48886","6902.773","95.125","531.164","518.112","0"
"GENERATED VIA SPACETRACK.ORG API","18 SPCS","48886","SPACEBEE-102","PAYLOAD","U","21059H","2022-03-20 21:11:46","579200","15.13802768","0.0009404","97.5412","210.1307","57.9089","302.3054","0","999","4052","0.0003634","0.00006503","0","3367488","0 SPACEBEE-102","1 48886U 21059H   22079.88317800  .00006503  00000-0  36340-3 0  9999","2 48886  97.5412 210.1307 0009404  57.9089 302.3054 15.13802768 40522","2021-059H","48886","6902.753","95.125","531.109","518.126","0"
"GENERATED VIA SPACETRACK.ORG API","18 SPCS","48886","SPACEBEE-102","PAYLOAD","U","21059H","2022-03-21 03:32:30","921504","15.13805631","0.0009403","97.5412","210.3925","57.2564","302.9572","0","999","4056","0.00034434","0.00006158","0","3367757","0 SPACEBEE-102","1 48886U 21059H   22080.14758011  .00006158  00000-0  34434-3 0  9991","2 48886  97.5412 210.3925 0009403  57.2564 302.9572 15.13805631 40567","2021-059H","48886","6902.744","95.124","531.100","518.118","0"
"GENERATED VIA SPACETRACK.ORG API","18 SPCS","48886","SPACEBEE-102","PAYLOAD","U","21059H","2022-03-21 08:18:04","148640","15.13808299","0.0009393","97.5412","210.5888","56.6378","303.5751","0","999","4059","0.00034236","0.00006123","0","3368827","0 SPACEBEE-102","1 48886U 21059H   22080.34588135  .00006123  00000-0  34236-3 0  9993","2 48886  97.5412 210.5888 0009393  56.6378 303.5751 15.13808299 40593","2021-059H","48886","6902.736","95.124","531.085","518.117","0"
"GENERATED VIA SPACETRACK.ORG API","18 SPCS","48886","SPACEBEE-102","PAYLOAD","U","21059H","2022-03-21 20:59:32","656992","15.13813593","0.0009354","97.5411","211.1124","54.9816","305.2292","0","999","4067","0.00030996","0.00005538","0","3368836","0 SPACEBEE-102","1 48886U 21059H   22080.87468353  .00005538  00000-0  30996-3 0  9998","2 48886  97.5411 211.1124 0009354  54.9816 305.2292 15.13813593 40678","2021-059H","48886","6902.720","95.124","531.042","518.128","0"
"GENERATED VIA SPACETRACK.ORG API","18 SPCS","48886","SPACEBEE-102","PAYLOAD","U","21059H","2022-03-22 08:05:49","905888","15.1381964","0.0009323","97.5411","211.5705","53.5335","306.6754","0","999","4074","0.00031165","0.00005569","0","3369610","0 SPACEBEE-102","1 48886U 21059H   22081.33738317  .00005569  00000-0  31165-3 0  9993","2 48886  97.5411 211.5705 0009323  53.5335 306.6754 15.13819640 40749","2021-059H","48886","6902.701","95.124","531.002","518.131","0"
"GENERATED VIA SPACETRACK.ORG API","18 SPCS","48886","SPACEBEE-102","PAYLOAD","U","21059H","2022-03-22 14:26:33","983808","15.13823293","0.0009301","97.5411","211.8323","52.6573","307.5505","0","999","4078","0.00032855","0.00005875","0","3369829","0 SPACEBEE-102","1 48886U 21059H   22081.60178222  .00005875  00000-0  32855-3 0  9993","2 48886  97.5411 211.8323 0009301  52.6573 307.5505 15.13823293 40785","2021-059H","48886","6902.690","95.123","530.975","518.135","0"
"GENERATED VIA SPACETRACK.ORG API","18 SPCS","48886","SPACEBEE-102","PAYLOAD","U","21059H","2022-03-22 20:47:18","47904","15.1382577","0.0009264","97.541","212.0941","51.8609","308.3456","0","999","4082","0.00031393","0.00005611","0","3370190","0 SPACEBEE-102","1 48886U 21059H   22081.86618111  .00005611  00000-0  31393-3 0  9991","2 48886  97.5410 212.0941 0009264  51.8609 308.3456 15.13825770 40823","2021-059H","48886","6902.683","95.123","530.942","518.153","0"
"GENERATED VIA SPACETRACK.ORG API","18 SPCS","48886","SPACEBEE-102","PAYLOAD","U","21059H","2022-03-23 14:14:18","897792","15.13835994","0.0009202","97.5409","212.8141","49.3909","310.8121","0","999","4093","0.00036337","0.00006508","0","3371208","0 SPACEBEE-102","1 48886U 21059H   22082.59327428  .00006508  00000-0  36337-3 0  9999","2 48886  97.5409 212.8141 0009202  49.3909 310.8121 15.13835994 40936","2021-059H","48886","6902.652","95.123","530.868","518.165","0"
"GENERATED VIA SPACETRACK.ORG API","18 SPCS","48886","SPACEBEE-102","PAYLOAD","U","21059H","2022-03-23 20:35:02","755392","15.13839866","0.0009174","97.5409","213.0759","48.4973","311.7045","0","999","4097","0.00038185","0.00006843","0","3371497","0 SPACEBEE-102","1 48886U 21059H   22082.85767078  .00006843  00000-0  38185-3 0  9992","2 48886  97.5409 213.0759 0009174  48.4973 311.7045 15.13839866 40974","2021-059H","48886","6902.640","95.122","530.837","518.172","0"
"GENERATED VIA SPACETRACK.ORG API","18 SPCS","48886","SPACEBEE-102","PAYLOAD","U","21059H","2022-03-24 07:41:19","346784","15.13846458","0.0009131","97.5408","213.5341","46.9333","313.2661","0","999","4104","0.00039698","0.00007118","0","3372185","0 SPACEBEE-102","1 48886U 21059H   22083.32036281  .00007118  00000-0  39698-3 0  9996","2 48886  97.5408 213.5341 0009131  46.9333 313.2661 15.13846458 41046","2021-059H","48886","6902.620","95.122","530.788","518.182","0"
"GENERATED VIA SPACETRACK.ORG API","18 SPCS","48886","SPACEBEE-102","PAYLOAD","U","21059H","2022-03-24 21:57:57","546432","15.13856457","0.0009069","97.5406","214.1232","44.843","315.3533","0","999","4113","0.00046308","0.00008318","0","3372715","0 SPACEBEE-102","1 48886U 21059H   22083.91524938  .00008318  00000-0  46308-3 0  9991","2 48886  97.5406 214.1232 0009069  44.8430 315.3533 15.13856457 41136","2021-059H","48886","6902.589","95.121","530.714","518.194","0"
"GENERATED VIA SPACETRACK.ORG API","18 SPCS","48886","SPACEBEE-102","PAYLOAD","U","21059H","2022-03-24 21:57:57","546432","15.13856457","0.0009069","97.5406","214.1232","44.843","315.3533","0","999","4113","0.00046308","0.00008318","0","3373054","0 SPACEBEE-102","1 48886U 21059H   22083.91524938  .00008318  00000-0  46308-3 0  9991","2 48886  97.5406 214.1232 0009069  44.8430 315.3533 15.13856457 41136","2021-059H","48886","6902.589","95.121","530.714","518.194","0"
"GENERATED VIA SPACETRACK.ORG API","18 SPCS","48886","SPACEBEE-102","PAYLOAD","U","21059H","2022-03-25 07:29:02","869728","15.13861522","0.0009055","97.5406","214.5158","43.5059","316.6885","0","999","4119","0.00044006","0.00007902","0","3373822","0 SPACEBEE-102","1 48886U 21059H   22084.31183877  .00007902  00000-0  44006-3 0  9990","2 48886  97.5406 214.5158 0009055  43.5059 316.6885 15.13861522 41194","2021-059H","48886","6902.574","95.121","530.689","518.189","0"
